{
    "links": {
        "self": "http://www.neowsapp.com/rest/v1/neo/3669245?api_key=iIulBulltgU6a56xZRHN4H3l9WmuAYTsLGpBGhQ2"
    },
    "id": "3669245",
    "neo_reference_id": "3669245",
    "name": "(2014 HZ123)",
    "designation": "2014 HZ123",
    "nasa_jpl_url": "http://ssd.jpl.nasa.gov/sbdb.cgi?sstr=3669245",
    "absolute_magnitude_h": 23.7,
    "estimated_diameter": {
        "kilometers": {
            "estimated_diameter_min": 0.0483676488,
            "estimated_diameter_max": 0.1081533507
        },
        "meters": {
            "estimated_diameter_min": 48.3676488219,
            "estimated_diameter_max": 108.1533506775
        },
        "miles": {
            "estimated_diameter_min": 0.0300542543,
            "estimated_diameter_max": 0.0672033557
        },
        "feet": {
            "estimated_diameter_min": 158.6865169607,
            "estimated_diameter_max": 354.8338390368
        }
    },
    "is_potentially_hazardous_asteroid": false,
    "close_approach_data": [
        {
            "close_approach_date": "2014-04-27",
            "close_approach_date_full": "2014-Apr-27 18:36",
            "epoch_date_close_approach": 1398623760000,
            "relative_velocity": {
                "kilometers_per_second": "5.2677131653",
                "kilometers_per_hour": "18963.7673951095",
                "miles_per_hour": "11783.3475794779"
            },
            "miss_distance": {
                "astronomical": "0.1892959776",
                "lunar": "73.6361352864",
                "kilometers": "28318275.048527712",
                "miles": "17596160.1703659456"
            },
            "orbiting_body": "Earth"
        }
    ],
    "orbital_data": {
        "orbit_id": "11",
        "orbit_determination_date": "2017-04-06 08:41:25",
        "first_observation_date": "2014-04-22",
        "last_observation_date": "2014-05-05",
        "data_arc_in_days": 13,
        "observations_used": 43,
        "orbit_uncertainty": "8",
        "minimum_orbit_intersection": ".188919",
        "jupiter_tisserand_invariant": "3.369",
        "epoch_osculation": "2456775.5",
        "eccentricity": ".4935012423441884",
        "semi_major_axis": "2.358375848012806",
        "inclination": "6.844221893616919",
        "ascending_node_longitude": "221.7908464146927",
        "orbital_period": "1322.87239766095",
        "perihelion_distance": "1.194514437103957",
        "perihelion_argument": "351.798884324153",
        "aphelion_distance": "3.522237258921654",
        "perihelion_time": "2456772.189495842294",
        "mean_anomaly": ".9009043494152729",
        "mean_motion": ".2721350907589709",
        "equinox": "J2000",
        "orbit_class": {
            "orbit_class_type": "AMO",
            "orbit_class_description": "Near-Earth asteroid orbits similar to that of 1221 Amor",
            "orbit_class_range": "1.017 AU < q (perihelion) < 1.3 AU"
        }
    },
    "is_sentry_object": false
}